[{"CCSDS_OMM_VERS":"3.0","COMMENT":"GENERATED VIA SPACE-TRACK.ORG API","CREATION_DATE":"2026-06-17T17:43:15","ORIGINATOR":"18 SPCS","OBJECT_NAME":"NAVSTAR 83 (USA 440)","OBJECT_ID":"2024-242A","CENTER_NAME":"EARTH","REF_FRAME":"TEME","TIME_SYSTEM":"UTC","MEAN_ELEMENT_THEORY":"SGP4","EPOCH":"2026-06-17T08:41:48.247008","MEAN_MOTION":"2.00571336","ECCENTRICITY":"0.00172297","INCLINATION":"54.8483","RA_OF_ASC_NODE":"334.1736","ARG_OF_PERICENTER":"4.0833","MEAN_ANOMALY":"11.4300","EPHEMERIS_TYPE":"0","CLASSIFICATION_TYPE":"U","NORAD_CAT_ID":"62339","ELEMENT_SET_NO":"999","REV_AT_EPOCH":"1126","BSTAR":"0.00000000000000","MEAN_MOTION_DOT":"-0.00000089","MEAN_MOTION_DDOT":"0.0000000000000","SEMIMAJOR_AXIS":"26559.665","PERIOD":"717.949","APOAPSIS":"20227.292","PERIAPSIS":"20135.769","OBJECT_TYPE":"PAYLOAD","RCS_SIZE":"LARGE","COUNTRY_CODE":"US","LAUNCH_DATE":"2024-12-17","SITE":"AFETR","DECAY_DATE":null,"FILE":"5252865","GP_ID":"330241586","TLE_LINE0":"0 NAVSTAR 83 (USA 440)","TLE_LINE1":"1 62339U 24242A   26168.36236397 -.00000089  00000-0  00000-0 0  9997","TLE_LINE2":"2 62339  54.8483 334.1736 0017230   4.0833  11.4300  2.00571336 11261"},{"CCSDS_OMM_VERS":"3.0","COMMENT":"GENERATED VIA SPACE-TRACK.ORG API","CREATION_DATE":"2026-06-17T15:17:06","ORIGINATOR":"18 SPCS","OBJECT_NAME":"NAVSTAR 83 (USA 440)","OBJECT_ID":"2024-242A","CENTER_NAME":"EARTH","REF_FRAME":"TEME","TIME_SYSTEM":"UTC","MEAN_ELEMENT_THEORY":"SGP4","EPOCH":"2026-06-17T08:41:48.247008","MEAN_MOTION":"2.00571336","ECCENTRICITY":"0.00172300","INCLINATION":"54.8482","RA_OF_ASC_NODE":"334.1736","ARG_OF_PERICENTER":"4.0833","MEAN_ANOMALY":"11.4300","EPHEMERIS_TYPE":"0","CLASSIFICATION_TYPE":"U","NORAD_CAT_ID":"62339","ELEMENT_SET_NO":"999","REV_AT_EPOCH":"1126","BSTAR":"0.00000000000000","MEAN_MOTION_DOT":"-0.00000089","MEAN_MOTION_DDOT":"0.0000000000000","SEMIMAJOR_AXIS":"26559.665","PERIOD":"717.949","APOAPSIS":"20227.293","PERIAPSIS":"20135.768","OBJECT_TYPE":"PAYLOAD","RCS_SIZE":"LARGE","COUNTRY_CODE":"US","LAUNCH_DATE":"2024-12-17","SITE":"AFETR","DECAY_DATE":null,"FILE":"5252711","GP_ID":"330202943","TLE_LINE0":"0 NAVSTAR 83 (USA 440)","TLE_LINE1":"1 62339U 24242A   26168.36236397 -.00000089  00000-0  00000+0 0  9996","TLE_LINE2":"2 62339  54.8482 334.1736 0017230   4.0833  11.4300  2.00571336 11260"},{"CCSDS_OMM_VERS":"3.0","COMMENT":"GENERATED VIA SPACE-TRACK.ORG API","CREATION_DATE":"2026-06-18T21:56:36","ORIGINATOR":"18 SPCS","OBJECT_NAME":"NAVSTAR 83 (USA 440)","OBJECT_ID":"2024-242A","CENTER_NAME":"EARTH","REF_FRAME":"TEME","TIME_SYSTEM":"UTC","MEAN_ELEMENT_THEORY":"SGP4","EPOCH":"2026-06-18T08:19:55.500960","MEAN_MOTION":"2.00571406","ECCENTRICITY":"0.00174870","INCLINATION":"54.8480","RA_OF_ASC_NODE":"334.1335","ARG_OF_PERICENTER":"4.2471","MEAN_ANOMALY":"2.3726","EPHEMERIS_TYPE":"0","CLASSIFICATION_TYPE":"U","NORAD_CAT_ID":"62339","ELEMENT_SET_NO":"999","REV_AT_EPOCH":"1128","BSTAR":"0.00000000000000","MEAN_MOTION_DOT":"-0.00000091","MEAN_MOTION_DDOT":"0.0000000000000","SEMIMAJOR_AXIS":"26559.659","PERIOD":"717.949","APOAPSIS":"20227.969","PERIAPSIS":"20135.079","OBJECT_TYPE":"PAYLOAD","RCS_SIZE":"LARGE","COUNTRY_CODE":"US","LAUNCH_DATE":"2024-12-17","SITE":"AFETR","DECAY_DATE":null,"FILE":"5254355","GP_ID":"330489903","TLE_LINE0":"0 NAVSTAR 83 (USA 440)","TLE_LINE1":"1 62339U 24242A   26169.34717015 -.00000091  00000-0  00000+0 0  9999","TLE_LINE2":"2 62339  54.8480 334.1335 0017487   4.2471   2.3726  2.00571406 11288"},{"CCSDS_OMM_VERS":"3.0","COMMENT":"GENERATED VIA SPACE-TRACK.ORG API","CREATION_DATE":"2026-06-18T17:45:15","ORIGINATOR":"18 SPCS","OBJECT_NAME":"NAVSTAR 83 (USA 440)","OBJECT_ID":"2024-242A","CENTER_NAME":"EARTH","REF_FRAME":"TEME","TIME_SYSTEM":"UTC","MEAN_ELEMENT_THEORY":"SGP4","EPOCH":"2026-06-18T08:19:55.501824","MEAN_MOTION":"2.00571406","ECCENTRICITY":"0.00174870","INCLINATION":"54.8480","RA_OF_ASC_NODE":"334.1335","ARG_OF_PERICENTER":"4.2471","MEAN_ANOMALY":"2.3726","EPHEMERIS_TYPE":"0","CLASSIFICATION_TYPE":"U","NORAD_CAT_ID":"62339","ELEMENT_SET_NO":"999","REV_AT_EPOCH":"1128","BSTAR":"0.00000000000000","MEAN_MOTION_DOT":"-0.00000091","MEAN_MOTION_DDOT":"0.0000000000000","SEMIMAJOR_AXIS":"26559.659","PERIOD":"717.949","APOAPSIS":"20227.969","PERIAPSIS":"20135.079","OBJECT_TYPE":"PAYLOAD","RCS_SIZE":"LARGE","COUNTRY_CODE":"US","LAUNCH_DATE":"2024-12-17","SITE":"AFETR","DECAY_DATE":null,"FILE":"5253513","GP_ID":"330399932","TLE_LINE0":"0 NAVSTAR 83 (USA 440)","TLE_LINE1":"1 62339U 24242A   26169.34717016 -.00000091  00000-0  00000-0 0  9991","TLE_LINE2":"2 62339  54.8480 334.1335 0017487   4.2471   2.3726  2.00571406 11288"},{"CCSDS_OMM_VERS":"3.0","COMMENT":"GENERATED VIA SPACE-TRACK.ORG API","CREATION_DATE":"2026-06-18T22:56:47","ORIGINATOR":"18 SPCS","OBJECT_NAME":"NAVSTAR 83 (USA 440)","OBJECT_ID":"2024-242A","CENTER_NAME":"EARTH","REF_FRAME":"TEME","TIME_SYSTEM":"UTC","MEAN_ELEMENT_THEORY":"SGP4","EPOCH":"2026-06-18T19:58:03.345888","MEAN_MOTION":"2.00571448","ECCENTRICITY":"0.00175870","INCLINATION":"54.8480","RA_OF_ASC_NODE":"334.1137","ARG_OF_PERICENTER":"4.3197","MEAN_ANOMALY":"352.3728","EPHEMERIS_TYPE":"0","CLASSIFICATION_TYPE":"U","NORAD_CAT_ID":"62339","ELEMENT_SET_NO":"999","REV_AT_EPOCH":"1128","BSTAR":"0.00000000000000","MEAN_MOTION_DOT":"-0.00000092","MEAN_MOTION_DDOT":"0.0000000000000","SEMIMAJOR_AXIS":"26559.655","PERIOD":"717.949","APOAPSIS":"20228.231","PERIAPSIS":"20134.810","OBJECT_TYPE":"PAYLOAD","RCS_SIZE":"LARGE","COUNTRY_CODE":"US","LAUNCH_DATE":"2024-12-17","SITE":"AFETR","DECAY_DATE":null,"FILE":"5254876","GP_ID":"330543125","TLE_LINE0":"0 NAVSTAR 83 (USA 440)","TLE_LINE1":"1 62339U 24242A   26169.83198317 -.00000092  00000-0  00000+0 0  9992","TLE_LINE2":"2 62339  54.8480 334.1137 0017587   4.3197 352.3728  2.00571448 11281"},{"CCSDS_OMM_VERS":"3.0","COMMENT":"GENERATED VIA SPACE-TRACK.ORG API","CREATION_DATE":"2026-06-19T02:57:24","ORIGINATOR":"18 SPCS","OBJECT_NAME":"NAVSTAR 83 (USA 440)","OBJECT_ID":"2024-242A","CENTER_NAME":"EARTH","REF_FRAME":"TEME","TIME_SYSTEM":"UTC","MEAN_ELEMENT_THEORY":"SGP4","EPOCH":"2026-06-18T19:58:03.346752","MEAN_MOTION":"2.00571448","ECCENTRICITY":"0.00175866","INCLINATION":"54.8480","RA_OF_ASC_NODE":"334.1138","ARG_OF_PERICENTER":"4.3197","MEAN_ANOMALY":"352.3728","EPHEMERIS_TYPE":"0","CLASSIFICATION_TYPE":"U","NORAD_CAT_ID":"62339","ELEMENT_SET_NO":"999","REV_AT_EPOCH":"1128","BSTAR":"0.00000000000000","MEAN_MOTION_DOT":"-0.00000092","MEAN_MOTION_DDOT":"0.0000000000000","SEMIMAJOR_AXIS":"26559.655","PERIOD":"717.949","APOAPSIS":"20228.230","PERIAPSIS":"20134.811","OBJECT_TYPE":"PAYLOAD","RCS_SIZE":"LARGE","COUNTRY_CODE":"US","LAUNCH_DATE":"2024-12-17","SITE":"AFETR","DECAY_DATE":null,"FILE":"5255019","GP_ID":"330579851","TLE_LINE0":"0 NAVSTAR 83 (USA 440)","TLE_LINE1":"1 62339U 24242A   26169.83198318 -.00000092  00000-0  00000-0 0  9994","TLE_LINE2":"2 62339  54.8480 334.1138 0017587   4.3197 352.3728  2.00571448 11282"},{"CCSDS_OMM_VERS":"3.0","COMMENT":"GENERATED VIA SPACE-TRACK.ORG API","CREATION_DATE":"2026-06-19T11:14:33","ORIGINATOR":"18 SPCS","OBJECT_NAME":"NAVSTAR 83 (USA 440)","OBJECT_ID":"2024-242A","CENTER_NAME":"EARTH","REF_FRAME":"TEME","TIME_SYSTEM":"UTC","MEAN_ELEMENT_THEORY":"SGP4","EPOCH":"2026-06-19T01:56:57.413184","MEAN_MOTION":"2.00571470","ECCENTRICITY":"0.00174383","INCLINATION":"54.8479","RA_OF_ASC_NODE":"334.1037","ARG_OF_PERICENTER":"4.2476","MEAN_ANOMALY":"172.4131","EPHEMERIS_TYPE":"0","CLASSIFICATION_TYPE":"U","NORAD_CAT_ID":"62339","ELEMENT_SET_NO":"999","REV_AT_EPOCH":"1129","BSTAR":"0.00000000000000","MEAN_MOTION_DOT":"-0.00000093","MEAN_MOTION_DDOT":"0.0000000000000","SEMIMAJOR_AXIS":"26559.653","PERIOD":"717.949","APOAPSIS":"20227.834","PERIAPSIS":"20135.203","OBJECT_TYPE":"PAYLOAD","RCS_SIZE":"LARGE","COUNTRY_CODE":"US","LAUNCH_DATE":"2024-12-17","SITE":"AFETR","DECAY_DATE":null,"FILE":"5255912","GP_ID":"330699833","TLE_LINE0":"0 NAVSTAR 83 (USA 440)","TLE_LINE1":"1 62339U 24242A   26170.08122006 -.00000093  00000-0  00000-0 0  9995","TLE_LINE2":"2 62339  54.8479 334.1037 0017438   4.2476 172.4131  2.00571470 11297"},{"CCSDS_OMM_VERS":"3.0","COMMENT":"GENERATED VIA SPACE-TRACK.ORG API","CREATION_DATE":"2026-06-19T06:57:01","ORIGINATOR":"18 SPCS","OBJECT_NAME":"NAVSTAR 83 (USA 440)","OBJECT_ID":"2024-242A","CENTER_NAME":"EARTH","REF_FRAME":"TEME","TIME_SYSTEM":"UTC","MEAN_ELEMENT_THEORY":"SGP4","EPOCH":"2026-06-19T01:56:57.413184","MEAN_MOTION":"2.00571470","ECCENTRICITY":"0.00174380","INCLINATION":"54.8479","RA_OF_ASC_NODE":"334.1037","ARG_OF_PERICENTER":"4.2476","MEAN_ANOMALY":"172.4131","EPHEMERIS_TYPE":"0","CLASSIFICATION_TYPE":"U","NORAD_CAT_ID":"62339","ELEMENT_SET_NO":"999","REV_AT_EPOCH":"1129","BSTAR":"0.00000000000000","MEAN_MOTION_DOT":"-0.00000093","MEAN_MOTION_DDOT":"0.0000000000000","SEMIMAJOR_AXIS":"26559.653","PERIOD":"717.949","APOAPSIS":"20227.833","PERIAPSIS":"20135.204","OBJECT_TYPE":"PAYLOAD","RCS_SIZE":"LARGE","COUNTRY_CODE":"US","LAUNCH_DATE":"2024-12-17","SITE":"AFETR","DECAY_DATE":null,"FILE":"5255751","GP_ID":"330659285","TLE_LINE0":"0 NAVSTAR 83 (USA 440)","TLE_LINE1":"1 62339U 24242A   26170.08122006 -.00000093  00000-0  00000+0 0  9994","TLE_LINE2":"2 62339  54.8479 334.1037 0017438   4.2476 172.4131  2.00571470 11297"}]